{
  "stores": [
    {
      "name": "ZARA Barcelona Passeig de Gràcia",
      "latitude": 41.39167,
      "longitude": 2.164912,
      "opening_hours": "M-F: 10-21\nS: 10-22",
      "phone": "+34 932 150 310"
    },
    {
      "name": "ZARA Barcelona Portal de l'Àngel",
      "latitude": 41.385064,
      "longitude": 2.173403,
      "opening_hours": "M-F: 10-21\nS: 10-22",
      "phone": "+34 933 183 245"
    },
    {
      "name": "ZARA Barcelona Plaça Catalunya",
      "latitude": 41.387018,
      "longitude": 2.170047,
      "opening_hours": "M-F: 10-21\nS: 10-22",
      "phone": "+34 933 012 811"
    },
    {
      "name": "ZARA Barcelona Avinguda Diagonal",
      "latitude": 41.39486,
      "longitude": 2.139432,
      "opening_hours": "M-F: 10-21\nS: 10-22",
      "phone": "+34 934 195 870"
    },
    {
      "name": "ZARA Diagonal Mar (Barcelona)",
      "latitude": 41.409035,
      "longitude": 2.216893,
      "opening_hours": "M-F: 10-21\nS: 10-22",
      "phone": "+34 932 356 780"
    },
    {
      "name": "ZARA Glòries (Barcelona)",
      "latitude": 41.403629,
      "longitude": 2.190996,
      "opening_hours": "M-F: 10-21\nS: 10-22",
      "phone": "+34 934 868 200"
    },
    {
      "name": "ZARA La Maquinista (Barcelona)",
      "latitude": 41.437077,
      "longitude": 2.199018,
      "opening_hours": "M-F: 10-21\nS: 10-22",
      "phone": "+34 933 607 421"
    },
    {
      "name": "ZARA Maremagnum (Barcelona)",
      "latitude": 41.375994,
      "longitude": 2.182657,
      "opening_hours": "M-F: 10-21\nS: 10-22",
      "phone": "+34 933 169 410"
    },
    {
      "name": "ZARA L'Illa Diagonal (Barcelona)",
      "latitude": 41.390735,
      "longitude": 2.134313,
      "opening_hours": "M-F: 10-21\nS: 10-22",
      "phone": "+34 934 108 522"
    },
    {
      "name": "ZARA Rambla Catalunya (Barcelona)",
      "latitude": 41.390218,
      "longitude": 2.166998,
      "opening_hours": "M-F: 10-21\nS: 10-22",
      "phone": "+34 933 327 905"
    },
    {
      "name": "ZARA Gran Via 2 (L'Hospitalet)",
      "latitude": 41.357844,
      "longitude": 2.129694,
      "opening_hours": "M-F: 10-21\nS: 10-22",
      "phone": "+34 932 590 540"
    },
    {
      "name": "ZARA Splau (Cornellà de Llobregat)",
      "latitude": 41.341377,
      "longitude": 2.070203,
      "opening_hours": "M-F: 10-21\nS: 10-22",
      "phone": "+34 934 740 165"
    },
    {
      "name": "ZARA Sant Cugat (Sant Cugat del Vallès)",
      "latitude": 41.472,
      "longitude": 2.084,
      "opening_hours": "M-F: 10-21\nS: 10-22",
      "phone": "+34 936 755 920"
    },
    {
      "name": "ZARA Terrassa (Parc Vallès)",
      "latitude": 41.561479,
      "longitude": 2.009781,
      "opening_hours": "M-F: 10-20\nS: 10-21",
      "phone": "+34 937 889 114"
    },
    {
      "name": "ZARA Sabadell (Eix Macià)",
      "latitude": 41.546295,
      "longitude": 2.107675,
      "opening_hours": "M-F: 10-20\nS: 10-21",
      "phone": "+34 937 276 650"
    },
    {
      "name": "ZARA Mataró Parc",
      "latitude": 41.540217,
      "longitude": 2.444743,
      "opening_hours": "M-F: 10-21\nS: 10-22",
      "phone": "+34 937 982 340"
    },
    {
      "name": "ZARA Badalona (Màgic Badalona)",
      "latitude": 41.44564,
      "longitude": 2.23169,
      "opening_hours": "M-F: 10-21\nS: 10-22",
      "phone": "+34 934 659 788"
    },
    {
      "name": "ZARA Girona Centre",
      "latitude": 41.981019,
      "longitude": 2.823699,
      "opening_hours": "M-F: 10-20\nS: 10-21",
      "phone": "+34 972 219 870"
    },
    {
      "name": "ZARA Tarragona Parc Central",
      "latitude": 41.116786,
      "longitude": 1.245431,
      "opening_hours": "M-F: 10-21\nS: 10-22",
      "phone": "+34 977 240 311"
    },
    {
      "name": "ZARA Reus La Fira",
      "latitude": 41.15612,
      "longitude": 1.107676,
      "opening_hours": "M-F: 10-21\nS: 10-22",
      "phone": "+34 977 755 420"
    },
    {
      "name": "ZARA Lleida Eix Comercial",
      "latitude": 41.616741,
      "longitude": 0.622197,
      "opening_hours": "M-F: 10-20\nS: 10-21",
      "phone": "+34 973 243 610"
    },
    {
      "name": "ZARA Figueres Centre",
      "latitude": 42.267257,
      "longitude": 2.958561,
      "opening_hours": "M-F: 10-20\nS: 10-21",
      "phone": "+34 972 512 905"
    },
    {
      "name": "ZARA Madrid Gran Vía",
      "latitude": 40.420303,
      "longitude": -3.705773,
      "opening_hours": "M-F: 10-21\nS: 10-22",
      "phone": "+34 915 312 487"
    },
    {
      "name": "ZARA Madrid Preciados",
      "latitude": 40.418314,
      "longitude": -3.705806,
      "opening_hours": "M-F: 10-21\nS: 10-22",
      "phone": "+34 915 224 930"
    },
    {
      "name": "ZARA Serrano (Madrid)",
      "latitude": 40.430583,
      "longitude": -3.687781,
      "opening_hours": "M-F: 10-21\nS: 10-22",
      "phone": "+34 914 312 690"
    },
    {
      "name": "ZARA Castellana (Madrid)",
      "latitude": 40.451055,
      "longitude": -3.689345,
      "opening_hours": "M-F: 10-21\nS: 10-22",
      "phone": "+34 913 924 510"
    },
    {
      "name": "ZARA Goya (Madrid)",
      "latitude": 40.42407,
      "longitude": -3.67531,
      "opening_hours": "M-F: 10-21\nS: 10-22",
      "phone": "+34 914 022 155"
    },
    {
      "name": "ZARA Princesa (Madrid)",
      "latitude": 40.43078,
      "longitude": -3.71521,
      "opening_hours": "M-F: 10-21\nS: 10-22",
      "phone": "+34 915 494 820"
    },
    {
      "name": "ZARA Plaza Norte 2 (San Sebastián de los Reyes)",
      "latitude": 40.541901,
      "longitude": -3.637812,
      "opening_hours": "M-F: 10-21\nS: 10-22",
      "phone": "+34 916 584 233"
    },
    {
      "name": "ZARA La Gavia (Madrid)",
      "latitude": 40.37205,
      "longitude": -3.60277,
      "opening_hours": "M-F: 10-21\nS: 10-22",
      "phone": "+34 914 250 718"
    },
    {
      "name": "ZARA ParqueSur (Leganés)",
      "latitude": 40.34148,
      "longitude": -3.74418,
      "opening_hours": "M-F: 10-21\nS: 10-22",
      "phone": "+34 916 870 655"
    },
    {
      "name": "ZARA Príncipe Pío (Madrid)",
      "latitude": 40.42169,
      "longitude": -3.72093,
      "opening_hours": "M-F: 10-21\nS: 10-22",
      "phone": "+34 915 480 312"
    },
    {
      "name": "ZARA Plenilunio (Madrid)",
      "latitude": 40.44769,
      "longitude": -3.58986,
      "opening_hours": "M-F: 10-21\nS: 10-22",
      "phone": "+34 913 291 004"
    },
    {
      "name": "ZARA Xanadú (Arroyomolinos)",
      "latitude": 40.29682,
      "longitude": -3.92418,
      "opening_hours": "M-F: 10-21\nS: 10-22",
      "phone": "+34 916 482 900"
    },
    {
      "name": "ZARA Valencia Colón",
      "latitude": 39.469907,
      "longitude": -0.376288,
      "opening_hours": "M-F: 10-21\nS: 10-22",
      "phone": "+34 963 512 408"
    },
    {
      "name": "ZARA Valencia Aqua Multiespacio",
      "latitude": 39.458412,
      "longitude": -0.349255,
      "opening_hours": "M-F: 10-21\nS: 10-22",
      "phone": "+34 963 315 122"
    },
    {
      "name": "ZARA Alicante Rambla",
      "latitude": 38.34527,
      "longitude": -0.48489,
      "opening_hours": "M-F: 10-21\nS: 10-22",
      "phone": "+34 965 209 641"
    },
    {
      "name": "ZARA Elche L'Aljub",
      "latitude": 38.27664,
      "longitude": -0.72098,
      "opening_hours": "M-F: 10-21\nS: 10-22",
      "phone": "+34 966 614 920"
    },
    {
      "name": "ZARA Castellón Centro",
      "latitude": 39.98635,
      "longitude": -0.03652,
      "opening_hours": "M-F: 10-20\nS: 10-21",
      "phone": "+34 964 230 410"
    },
    {
      "name": "ZARA Benidorm La Marina",
      "latitude": 38.54176,
      "longitude": -0.12678,
      "opening_hours": "M-F: 10-21\nS: 10-22",
      "phone": "+34 965 855 330"
    },
    {
      "name": "ZARA Sevilla Nervión Plaza",
      "latitude": 37.38283,
      "longitude": -5.973173,
      "opening_hours": "M-F: 10-21\nS: 10-22",
      "phone": "+34 954 532 611"
    },
    {
      "name": "ZARA Sevilla Centro (Tetuán)",
      "latitude": 37.39366,
      "longitude": -5.99512,
      "opening_hours": "M-F: 10-21\nS: 10-22",
      "phone": "+34 954 221 604"
    },
    {
      "name": "ZARA Málaga Calle Larios",
      "latitude": 36.721302,
      "longitude": -4.421636,
      "opening_hours": "M-F: 10-21\nS: 10-22",
      "phone": "+34 952 602 345"
    },
    {
      "name": "ZARA Málaga Plaza Mayor",
      "latitude": 36.659811,
      "longitude": -4.482123,
      "opening_hours": "M-F: 10-21\nS: 10-22",
      "phone": "+34 952 172 110"
    },
    {
      "name": "ZARA Granada Centro",
      "latitude": 37.17633,
      "longitude": -3.59856,
      "opening_hours": "M-F: 10-20\nS: 10-21",
      "phone": "+34 958 215 900"
    },
    {
      "name": "ZARA Córdoba Centro",
      "latitude": 37.88458,
      "longitude": -4.77905,
      "opening_hours": "M-F: 10-20\nS: 10-21",
      "phone": "+34 957 410 522"
    },
    {
      "name": "ZARA Cádiz Centro",
      "latitude": 36.52982,
      "longitude": -6.29209,
      "opening_hours": "M-F: 10-20\nS: 10-21",
      "phone": "+34 956 220 730"
    },
    {
      "name": "ZARA Marbella La Cañada",
      "latitude": 36.51782,
      "longitude": -4.88602,
      "opening_hours": "M-F: 10-21\nS: 10-22",
      "phone": "+34 952 773 914"
    },
    {
      "name": "ZARA Bilbao Gran Vía",
      "latitude": 43.262985,
      "longitude": -2.935013,
      "opening_hours": "M-F: 10-20\nS: 10-21",
      "phone": "+34 944 241 889"
    },
    {
      "name": "ZARA San Sebastián Centro",
      "latitude": 43.3185,
      "longitude": -1.98123,
      "opening_hours": "M-F: 10-20\nS: 10-21",
      "phone": "+34 943 421 115"
    },
    {
      "name": "ZARA Vitoria-Gasteiz Centro",
      "latitude": 42.84672,
      "longitude": -2.67163,
      "opening_hours": "M-F: 10-20\nS: 10-21",
      "phone": "+34 945 120 904"
    },
    {
      "name": "ZARA Pamplona La Morea",
      "latitude": 42.78989,
      "longitude": -1.6337,
      "opening_hours": "M-F: 10-21\nS: 10-22",
      "phone": "+34 948 151 420"
    },
    {
      "name": "ZARA Zaragoza Independencia",
      "latitude": 41.648823,
      "longitude": -0.889085,
      "opening_hours": "M-F: 10-21\nS: 10-22",
      "phone": "+34 976 219 877"
    },
    {
      "name": "ZARA Zaragoza Puerto Venecia",
      "latitude": 41.62568,
      "longitude": -0.88696,
      "opening_hours": "M-F: 10-21\nS: 10-22",
      "phone": "+34 976 546 210"
    },
    {
      "name": "ZARA A Coruña Marineda City",
      "latitude": 43.34427,
      "longitude": -8.42995,
      "opening_hours": "M-F: 10-21\nS: 10-22",
      "phone": "+34 981 170 622"
    },
    {
      "name": "ZARA Vigo Centro",
      "latitude": 42.2393,
      "longitude": -8.72468,
      "opening_hours": "M-F: 10-20\nS: 10-21",
      "phone": "+34 986 225 410"
    },
    {
      "name": "ZARA Santiago de Compostela Centro",
      "latitude": 42.88052,
      "longitude": -8.54569,
      "opening_hours": "M-F: 10-20\nS: 10-21",
      "phone": "+34 981 590 144"
    },
    {
      "name": "ZARA Oviedo Centro",
      "latitude": 43.36191,
      "longitude": -5.84939,
      "opening_hours": "M-F: 10-20\nS: 10-21",
      "phone": "+34 984 083 512"
    },
    {
      "name": "ZARA Santander Centro",
      "latitude": 43.46231,
      "longitude": -3.80998,
      "opening_hours": "M-F: 10-20\nS: 10-21",
      "phone": "+34 942 214 901"
    },
    {
      "name": "ZARA Palma de Mallorca Centre",
      "latitude": 39.5696,
      "longitude": 2.65016,
      "opening_hours": "M-F: 10-21\nS: 10-22",
      "phone": "+34 971 720 518"
    },
    {
      "name": "ZARA Las Palmas de Gran Canaria",
      "latitude": 28.12482,
      "longitude": -15.429,
      "opening_hours": "M-F: 10-21\nS: 10-22",
      "phone": "+34 928 243 690"
    },
    {
      "name": "ZARA Santa Cruz de Tenerife",
      "latitude": 28.46824,
      "longitude": -16.25462,
      "opening_hours": "M-F: 10-21\nS: 10-22",
      "phone": "+34 922 286 441"
    },
    {
      "name": "ZARA Paris Champs-Élysées",
      "latitude": 48.869867,
      "longitude": 2.307297,
      "opening_hours": "M-F: 10-21\nS: 10-22",
      "phone": "+33 1 47 23 56 80"
    },
    {
      "name": "ZARA Paris Rivoli",
      "latitude": 48.85692,
      "longitude": 2.35212,
      "opening_hours": "M-F: 10-21\nS: 10-22",
      "phone": "+33 1 42 36 10 90"
    },
    {
      "name": "ZARA Lyon Part-Dieu",
      "latitude": 45.760103,
      "longitude": 4.861946,
      "opening_hours": "M-F: 10-21\nS: 10-22",
      "phone": "+33 4 72 60 11 20"
    },
    {
      "name": "ZARA Marseille Saint-Ferréol",
      "latitude": 43.29478,
      "longitude": 5.37604,
      "opening_hours": "M-F: 10-21\nS: 10-22",
      "phone": "+33 4 91 54 20 10"
    },
    {
      "name": "ZARA Nice Jean Médecin",
      "latitude": 43.70398,
      "longitude": 7.26651,
      "opening_hours": "M-F: 10-21\nS: 10-22",
      "phone": "+33 4 93 16 44 10"
    },
    {
      "name": "ZARA London Oxford Street",
      "latitude": 51.515419,
      "longitude": -0.141099,
      "opening_hours": "M-F: 10-21\nS: 10-22",
      "phone": "+44 20 7499 4100"
    },
    {
      "name": "ZARA London Westfield Stratford City",
      "latitude": 51.54387,
      "longitude": -0.00631,
      "opening_hours": "M-F: 10-21\nS: 10-22",
      "phone": "+44 20 8221 7000"
    },
    {
      "name": "ZARA Manchester Arndale",
      "latitude": 53.48584,
      "longitude": -2.2399,
      "opening_hours": "M-F: 10-21\nS: 10-22",
      "phone": "+44 161 833 9100"
    },
    {
      "name": "ZARA Birmingham Bullring",
      "latitude": 52.47765,
      "longitude": -1.89312,
      "opening_hours": "M-F: 10-21\nS: 10-22",
      "phone": "+44 121 632 4100"
    },
    {
      "name": "ZARA Edinburgh Princes Street",
      "latitude": 55.95215,
      "longitude": -3.1965,
      "opening_hours": "M-F: 10-20\nS: 10-20",
      "phone": "+44 131 226 7800"
    },
    {
      "name": "ZARA Berlin Alexanderplatz",
      "latitude": 52.521918,
      "longitude": 13.413215,
      "opening_hours": "M-F: 10-21\nS: 10-22",
      "phone": "+49 30 2404 1230"
    },
    {
      "name": "ZARA Berlin Kurfürstendamm",
      "latitude": 52.50384,
      "longitude": 13.3316,
      "opening_hours": "M-F: 10-21\nS: 10-22",
      "phone": "+49 30 8871 2200"
    },
    {
      "name": "ZARA Munich Marienplatz",
      "latitude": 48.13743,
      "longitude": 11.57549,
      "opening_hours": "M-F: 10-21\nS: 10-22",
      "phone": "+49 89 2420 8900"
    },
    {
      "name": "ZARA Hamburg Mönckebergstraße",
      "latitude": 53.5505,
      "longitude": 10.00396,
      "opening_hours": "M-F: 10-21\nS: 10-22",
      "phone": "+49 40 3095 6600"
    },
    {
      "name": "ZARA Frankfurt Zeil",
      "latitude": 50.11362,
      "longitude": 8.67947,
      "opening_hours": "M-F: 10-21\nS: 10-22",
      "phone": "+49 69 2972 1100"
    },
    {
      "name": "ZARA Milan Duomo",
      "latitude": 45.464203,
      "longitude": 9.189982,
      "opening_hours": "M-F: 10-21\nS: 10-22",
      "phone": "+39 02 8645 1221"
    },
    {
      "name": "ZARA Rome Via del Corso",
      "latitude": 41.9022,
      "longitude": 12.4793,
      "opening_hours": "M-F: 10-21\nS: 10-22",
      "phone": "+39 06 679 2200"
    },
    {
      "name": "ZARA Turin Via Roma",
      "latitude": 45.06775,
      "longitude": 7.68249,
      "opening_hours": "M-F: 10-21\nS: 10-22",
      "phone": "+39 011 562 4100"
    },
    {
      "name": "ZARA Naples Via Toledo",
      "latitude": 40.84596,
      "longitude": 14.24802,
      "opening_hours": "M-F: 10-21\nS: 10-22",
      "phone": "+39 081 551 9200"
    },
    {
      "name": "ZARA Lisbon Chiado",
      "latitude": 38.7113,
      "longitude": -9.1427,
      "opening_hours": "M-F: 10-21\nS: 10-22",
      "phone": "+351 21 347 1200"
    },
    {
      "name": "ZARA Porto Santa Catarina",
      "latitude": 41.1494,
      "longitude": -8.6062,
      "opening_hours": "M-F: 10-21\nS: 10-22",
      "phone": "+351 22 200 4100"
    },
    {
      "name": "ZARA Amsterdam Kalverstraat",
      "latitude": 52.36725,
      "longitude": 4.89213,
      "opening_hours": "M-F: 10-21\nS: 10-22",
      "phone": "+31 20 521 9000"
    },
    {
      "name": "ZARA Rotterdam Lijnbaan",
      "latitude": 51.91998,
      "longitude": 4.47232,
      "opening_hours": "M-F: 10-21\nS: 10-22",
      "phone": "+31 10 414 3300"
    },
    {
      "name": "ZARA Brussels Rue Neuve",
      "latitude": 50.85098,
      "longitude": 4.35254,
      "opening_hours": "M-F: 10-21\nS: 10-22",
      "phone": "+32 2 219 7800"
    },
    {
      "name": "ZARA Antwerp Meir",
      "latitude": 51.21962,
      "longitude": 4.40429,
      "opening_hours": "M-F: 10-21\nS: 10-22",
      "phone": "+32 3 233 4100"
    },
    {
      "name": "ZARA Zurich Bahnhofstrasse",
      "latitude": 47.37293,
      "longitude": 8.53854,
      "opening_hours": "M-F: 10-20\nS: 10-20",
      "phone": "+41 44 211 7800"
    },
    {
      "name": "ZARA Geneva Rue du Rhône",
      "latitude": 46.20439,
      "longitude": 6.14722,
      "opening_hours": "M-F: 10-20\nS: 10-20",
      "phone": "+41 22 310 9200"
    },
    {
      "name": "ZARA Vienna Kärntner Straße",
      "latitude": 48.20565,
      "longitude": 16.37255,
      "opening_hours": "M-F: 10-21\nS: 10-22",
      "phone": "+43 1 512 4100"
    },
    {
      "name": "ZARA Dublin Grafton Street",
      "latitude": 53.34298,
      "longitude": -6.25941,
      "opening_hours": "M-F: 10-21\nS: 10-22",
      "phone": "+353 1 679 2200"
    },
    {
      "name": "ZARA New York Fifth Avenue",
      "latitude": 40.76078,
      "longitude": -73.975512,
      "opening_hours": "M-F: 10-21\nS: 10-22",
      "phone": "+1 212 355 2700"
    },
    {
      "name": "ZARA New York Soho (Broadway)",
      "latitude": 40.72421,
      "longitude": -73.99959,
      "opening_hours": "M-F: 10-21\nS: 10-22",
      "phone": "+1 212 226 7400"
    },
    {
      "name": "ZARA Boston Newbury Street",
      "latitude": 42.3497,
      "longitude": -71.0826,
      "opening_hours": "M-F: 10-21\nS: 10-22",
      "phone": "+1 617 236 1200"
    },
    {
      "name": "ZARA Chicago Michigan Avenue",
      "latitude": 41.89865,
      "longitude": -87.62488,
      "opening_hours": "M-F: 10-21\nS: 10-22",
      "phone": "+1 312 642 1900"
    },
    {
      "name": "ZARA San Francisco Union Square",
      "latitude": 37.78794,
      "longitude": -122.40748,
      "opening_hours": "M-F: 10-21\nS: 10-22",
      "phone": "+1 415 398 2200"
    },
    {
      "name": "ZARA Los Angeles The Grove",
      "latitude": 34.072545,
      "longitude": -118.357053,
      "opening_hours": "M-F: 10-21\nS: 10-22",
      "phone": "+1 323 930 2230"
    },
    {
      "name": "ZARA Los Angeles Beverly Center",
      "latitude": 34.07562,
      "longitude": -118.37677,
      "opening_hours": "M-F: 10-21\nS: 10-22",
      "phone": "+1 310 854 2200"
    },
    {
      "name": "ZARA Miami Lincoln Road",
      "latitude": 25.79065,
      "longitude": -80.13938,
      "opening_hours": "M-F: 10-21\nS: 10-22",
      "phone": "+1 305 531 8100"
    },
    {
      "name": "ZARA Miami Aventura Mall",
      "latitude": 25.95609,
      "longitude": -80.14235,
      "opening_hours": "M-F: 10-21\nS: 10-22",
      "phone": "+1 305 935 2200"
    },
    {
      "name": "ZARA Houston Galleria",
      "latitude": 29.74065,
      "longitude": -95.46103,
      "opening_hours": "M-F: 10-21\nS: 10-22",
      "phone": "+1 713 621 2200"
    },
    {
      "name": "ZARA Toronto Eaton Centre",
      "latitude": 43.654438,
      "longitude": -79.380699,
      "opening_hours": "M-F: 10-21\nS: 10-22",
      "phone": "+1 416 598 2200"
    },
    {
      "name": "ZARA Toronto Yorkdale",
      "latitude": 43.72669,
      "longitude": -79.45275,
      "opening_hours": "M-F: 10-21\nS: 10-22",
      "phone": "+1 416 789 2200"
    },
    {
      "name": "ZARA Vancouver Pacific Centre",
      "latitude": 49.28205,
      "longitude": -123.11891,
      "opening_hours": "M-F: 10-21\nS: 10-22",
      "phone": "+1 604 683 2200"
    },
    {
      "name": "ZARA Montreal Sainte-Catherine",
      "latitude": 45.50126,
      "longitude": -73.57238,
      "opening_hours": "M-F: 10-21\nS: 10-22",
      "phone": "+1 514 932 2200"
    },
    {
      "name": "ZARA Calgary Chinook Centre",
      "latitude": 50.99952,
      "longitude": -114.07454,
      "opening_hours": "M-F: 10-21\nS: 10-22",
      "phone": "+1 403 252 2200"
    },
    {
      "name": "ZARA Ottawa Rideau Centre",
      "latitude": 45.42691,
      "longitude": -75.69003,
      "opening_hours": "M-F: 10-21\nS: 10-22",
      "phone": "+1 613 238 2200"
    },
    {
      "name": "ZARA Edmonton West Edmonton Mall",
      "latitude": 53.52242,
      "longitude": -113.62456,
      "opening_hours": "M-F: 10-21\nS: 10-22",
      "phone": "+1 780 444 2200"
    },
    {
      "name": "ZARA Quebec City Place Ste-Foy",
      "latitude": 46.77193,
      "longitude": -71.30455,
      "opening_hours": "M-F: 10-21\nS: 10-22",
      "phone": "+1 418 657 2200"
    },
    {
      "name": "ZARA Mexico City Polanco",
      "latitude": 19.432608,
      "longitude": -99.133209,
      "opening_hours": "M-F: 10-21\nS: 10-22",
      "phone": "+52 55 5280 2200"
    },
    {
      "name": "ZARA Mexico City Santa Fe",
      "latitude": 19.36098,
      "longitude": -99.27177,
      "opening_hours": "M-F: 10-21\nS: 10-22",
      "phone": "+52 55 2167 2200"
    },
    {
      "name": "ZARA Guadalajara Andares",
      "latitude": 20.71034,
      "longitude": -103.41353,
      "opening_hours": "M-F: 10-21\nS: 10-22",
      "phone": "+52 33 3611 2200"
    },
    {
      "name": "ZARA Monterrey San Pedro",
      "latitude": 25.66021,
      "longitude": -100.36028,
      "opening_hours": "M-F: 10-21\nS: 10-22",
      "phone": "+52 81 8335 2200"
    },
    {
      "name": "ZARA Bogotá Zona T",
      "latitude": 4.66747,
      "longitude": -74.0537,
      "opening_hours": "M-F: 10-21\nS: 10-22",
      "phone": "+57 1 621 2200"
    },
    {
      "name": "ZARA Medellín El Poblado",
      "latitude": 6.20719,
      "longitude": -75.5656,
      "opening_hours": "M-F: 10-21\nS: 10-22",
      "phone": "+57 4 444 2200"
    },
    {
      "name": "ZARA Lima Miraflores",
      "latitude": -12.1252,
      "longitude": -77.0291,
      "opening_hours": "M-F: 10-21\nS: 10-22",
      "phone": "+51 1 610 2200"
    },
    {
      "name": "ZARA Santiago Costanera Center",
      "latitude": -33.4173,
      "longitude": -70.6056,
      "opening_hours": "M-F: 10-21\nS: 10-22",
      "phone": "+56 2 2616 2200"
    },
    {
      "name": "ZARA Buenos Aires Florida",
      "latitude": -34.60312,
      "longitude": -58.3737,
      "opening_hours": "M-F: 10-21\nS: 10-22",
      "phone": "+54 11 4321 2200"
    },
    {
      "name": "ZARA São Paulo Paulista",
      "latitude": -23.561684,
      "longitude": -46.656139,
      "opening_hours": "M-F: 10-21\nS: 10-22",
      "phone": "+55 11 3159 2200"
    },
    {
      "name": "ZARA Rio de Janeiro BarraShopping",
      "latitude": -22.99928,
      "longitude": -43.36591,
      "opening_hours": "M-F: 10-21\nS: 10-22",
      "phone": "+55 21 2431 2200"
    },
    {
      "name": "ZARA Panama City Multiplaza",
      "latitude": 8.98285,
      "longitude": -79.52035,
      "opening_hours": "M-F: 10-21\nS: 10-22",
      "phone": "+507 302 2200"
    },
    {
      "name": "ZARA Tokyo Shibuya",
      "latitude": 35.659108,
      "longitude": 139.703728,
      "opening_hours": "M-F: 10-22\nS: 10-22",
      "phone": "+81 3 6415 0123"
    },
    {
      "name": "ZARA Osaka Umeda",
      "latitude": 34.70368,
      "longitude": 135.49722,
      "opening_hours": "M-F: 10-22\nS: 10-22",
      "phone": "+81 6 6345 2200"
    },
    {
      "name": "ZARA Seoul Myeongdong",
      "latitude": 37.563756,
      "longitude": 126.982677,
      "opening_hours": "M-F: 10-22\nS: 10-22",
      "phone": "+82 2 3789 2200"
    },
    {
      "name": "ZARA Busan Centum City",
      "latitude": 35.16992,
      "longitude": 129.13002,
      "opening_hours": "M-F: 10-22\nS: 10-22",
      "phone": "+82 51 745 2200"
    },
    {
      "name": "ZARA Singapore Orchard Road",
      "latitude": 1.30482,
      "longitude": 103.83186,
      "opening_hours": "M-F: 10-22\nS: 10-22",
      "phone": "+65 6732 2200"
    },
    {
      "name": "ZARA Hong Kong Causeway Bay",
      "latitude": 22.27983,
      "longitude": 114.18295,
      "opening_hours": "M-F: 10-22\nS: 10-22",
      "phone": "+852 2890 2200"
    },
    {
      "name": "ZARA Shanghai Nanjing Road",
      "latitude": 31.2363,
      "longitude": 121.4829,
      "opening_hours": "M-F: 10-22\nS: 10-22",
      "phone": "+86 21 6351 2200"
    },
    {
      "name": "ZARA Beijing Wangfujing",
      "latitude": 39.9155,
      "longitude": 116.4117,
      "opening_hours": "M-F: 10-22\nS: 10-22",
      "phone": "+86 10 6525 2200"
    },
    {
      "name": "ZARA Bangkok Siam",
      "latitude": 13.74635,
      "longitude": 100.53447,
      "opening_hours": "M-F: 10-22\nS: 10-22",
      "phone": "+66 2 658 2200"
    },
    {
      "name": "ZARA Kuala Lumpur Pavilion",
      "latitude": 3.14954,
      "longitude": 101.71364,
      "opening_hours": "M-F: 10-22\nS: 10-22",
      "phone": "+60 3 2148 2200"
    },
    {
      "name": "ZARA Jakarta Grand Indonesia",
      "latitude": -6.19561,
      "longitude": 106.82198,
      "opening_hours": "M-F: 10-22\nS: 10-22",
      "phone": "+62 21 2358 2200"
    },
    {
      "name": "ZARA Manila Makati",
      "latitude": 14.55223,
      "longitude": 121.0246,
      "opening_hours": "M-F: 10-22\nS: 10-22",
      "phone": "+63 2 8892 2200"
    },
    {
      "name": "ZARA Sydney Pitt Street",
      "latitude": -33.870847,
      "longitude": 151.207333,
      "opening_hours": "M-F: 10-21\nS: 10-22",
      "phone": "+61 2 9232 2200"
    },
    {
      "name": "ZARA Melbourne Bourke Street",
      "latitude": -37.81326,
      "longitude": 144.96219,
      "opening_hours": "M-F: 10-21\nS: 10-22",
      "phone": "+61 3 9654 2200"
    },
    {
      "name": "ZARA Dubai Mall",
      "latitude": 25.197197,
      "longitude": 55.274376,
      "opening_hours": "M-F: 10-22\nS: 10-23",
      "phone": "+971 4 362 2200"
    },
    {
      "name": "ZARA Abu Dhabi Yas Mall",
      "latitude": 24.4883,
      "longitude": 54.6062,
      "opening_hours": "M-F: 10-22\nS: 10-23",
      "phone": "+971 2 565 2200"
    },
    {
      "name": "ZARA Doha Villaggio",
      "latitude": 25.2634,
      "longitude": 51.4419,
      "opening_hours": "M-F: 10-22\nS: 10-23",
      "phone": "+974 4413 2200"
    },
    {
      "name": "ZARA Istanbul Istiklal",
      "latitude": 41.03508,
      "longitude": 28.97774,
      "opening_hours": "M-F: 10-21\nS: 10-22",
      "phone": "+90 212 293 2200"
    },
    {
      "name": "ZARA Johannesburg Sandton",
      "latitude": -26.107567,
      "longitude": 28.056702,
      "opening_hours": "M-F: 10-21\nS: 10-22",
      "phone": "+27 11 784 2200"
    },
    {
      "name": "ZARA Casablanca Morocco Mall",
      "latitude": 33.57643,
      "longitude": -7.70491,
      "opening_hours": "M-F: 10-21\nS: 10-22",
      "phone": "+212 522 2200 00"
    }
  ]
}
